<?xml version="1.0" encoding="UTF-8"?>
<ndm xmlns:xsi="http://www.w3.org/2001/XMLSchema-instance" xsi:noNamespaceSchemaLocation="https://sanaregistry.org/r/ndmxml_unqualified/ndmxml-2.0.0-master-2.0.xsd">
<omm id="CCSDS_OMM_VERS" version="2.0">
<header><CREATION_DATE/><ORIGINATOR/></header><body><segment><metadata><OBJECT_NAME>KUIPER-00061</OBJECT_NAME><OBJECT_ID>2025-134X</OBJECT_ID><CENTER_NAME>EARTH</CENTER_NAME><REF_FRAME>TEME</REF_FRAME><TIME_SYSTEM>UTC</TIME_SYSTEM><MEAN_ELEMENT_THEORY>SGP4</MEAN_ELEMENT_THEORY></metadata><data><meanElements><EPOCH>2025-11-13T13:15:00.349632</EPOCH><MEAN_MOTION>14.80018353</MEAN_MOTION><ECCENTRICITY>.0005051</ECCENTRICITY><INCLINATION>51.9025</INCLINATION><RA_OF_ASC_NODE>21.6428</RA_OF_ASC_NODE><ARG_OF_PERICENTER>252.1265</ARG_OF_PERICENTER><MEAN_ANOMALY>107.9146</MEAN_ANOMALY></meanElements><tleParameters><EPHEMERIS_TYPE>0</EPHEMERIS_TYPE><CLASSIFICATION_TYPE>U</CLASSIFICATION_TYPE><NORAD_CAT_ID>64521</NORAD_CAT_ID><ELEMENT_SET_NO>999</ELEMENT_SET_NO><REV_AT_EPOCH>2293</REV_AT_EPOCH><BSTAR>.13442E-2</BSTAR><MEAN_MOTION_DOT>.10063E-3</MEAN_MOTION_DOT><MEAN_MOTION_DDOT>0</MEAN_MOTION_DDOT></tleParameters></data></segment></body></omm>
<omm id="CCSDS_OMM_VERS" version="2.0">
<header><CREATION_DATE/><ORIGINATOR/></header><body><segment><metadata><OBJECT_NAME>KUIPER-00062</OBJECT_NAME><OBJECT_ID>2025-134Y</OBJECT_ID><CENTER_NAME>EARTH</CENTER_NAME><REF_FRAME>TEME</REF_FRAME><TIME_SYSTEM>UTC</TIME_SYSTEM><MEAN_ELEMENT_THEORY>SGP4</MEAN_ELEMENT_THEORY></metadata><data><meanElements><EPOCH>2025-11-13T14:38:23.576640</EPOCH><MEAN_MOTION>14.84890758</MEAN_MOTION><ECCENTRICITY>.0006793</ECCENTRICITY><INCLINATION>51.8988</INCLINATION><RA_OF_ASC_NODE>27.3929</RA_OF_ASC_NODE><ARG_OF_PERICENTER>274.8485</ARG_OF_PERICENTER><MEAN_ANOMALY>85.1704</MEAN_ANOMALY></meanElements><tleParameters><EPHEMERIS_TYPE>0</EPHEMERIS_TYPE><CLASSIFICATION_TYPE>U</CLASSIFICATION_TYPE><NORAD_CAT_ID>64522</NORAD_CAT_ID><ELEMENT_SET_NO>999</ELEMENT_SET_NO><REV_AT_EPOCH>2287</REV_AT_EPOCH><BSTAR>.16272E-2</BSTAR><MEAN_MOTION_DOT>.13778E-3</MEAN_MOTION_DOT><MEAN_MOTION_DDOT>0</MEAN_MOTION_DDOT></tleParameters></data></segment></body></omm>
<omm id="CCSDS_OMM_VERS" version="2.0">
<header><CREATION_DATE/><ORIGINATOR/></header><body><segment><metadata><OBJECT_NAME>KUIPER-00063</OBJECT_NAME><OBJECT_ID>2025-134Z</OBJECT_ID><CENTER_NAME>EARTH</CENTER_NAME><REF_FRAME>TEME</REF_FRAME><TIME_SYSTEM>UTC</TIME_SYSTEM><MEAN_ELEMENT_THEORY>SGP4</MEAN_ELEMENT_THEORY></metadata><data><meanElements><EPOCH>2025-11-13T11:12:58.222656</EPOCH><MEAN_MOTION>14.80041125</MEAN_MOTION><ECCENTRICITY>.0003363</ECCENTRICITY><INCLINATION>51.9039</INCLINATION><RA_OF_ASC_NODE>31.9476</RA_OF_ASC_NODE><ARG_OF_PERICENTER>208.1683</ARG_OF_PERICENTER><MEAN_ANOMALY>151.9098</MEAN_ANOMALY></meanElements><tleParameters><EPHEMERIS_TYPE>0</EPHEMERIS_TYPE><CLASSIFICATION_TYPE>U</CLASSIFICATION_TYPE><NORAD_CAT_ID>64523</NORAD_CAT_ID><ELEMENT_SET_NO>999</ELEMENT_SET_NO><REV_AT_EPOCH>2279</REV_AT_EPOCH><BSTAR>.13019E-2</BSTAR><MEAN_MOTION_DOT>.9744E-4</MEAN_MOTION_DOT><MEAN_MOTION_DDOT>0</MEAN_MOTION_DDOT></tleParameters></data></segment></body></omm>
<omm id="CCSDS_OMM_VERS" version="2.0">
<header><CREATION_DATE/><ORIGINATOR/></header><body><segment><metadata><OBJECT_NAME>KUIPER-00064</OBJECT_NAME><OBJECT_ID>2025-134AA</OBJECT_ID><CENTER_NAME>EARTH</CENTER_NAME><REF_FRAME>TEME</REF_FRAME><TIME_SYSTEM>UTC</TIME_SYSTEM><MEAN_ELEMENT_THEORY>SGP4</MEAN_ELEMENT_THEORY></metadata><data><meanElements><EPOCH>2025-11-13T09:28:05.670048</EPOCH><MEAN_MOTION>14.79664687</MEAN_MOTION><ECCENTRICITY>.0006184</ECCENTRICITY><INCLINATION>51.9043</INCLINATION><RA_OF_ASC_NODE>29.6012</RA_OF_ASC_NODE><ARG_OF_PERICENTER>331.3447</ARG_OF_PERICENTER><MEAN_ANOMALY>28.7175</MEAN_ANOMALY></meanElements><tleParameters><EPHEMERIS_TYPE>0</EPHEMERIS_TYPE><CLASSIFICATION_TYPE>U</CLASSIFICATION_TYPE><NORAD_CAT_ID>64524</NORAD_CAT_ID><ELEMENT_SET_NO>999</ELEMENT_SET_NO><REV_AT_EPOCH>2282</REV_AT_EPOCH><BSTAR>.19194E-2</BSTAR><MEAN_MOTION_DOT>.14352E-3</MEAN_MOTION_DOT><MEAN_MOTION_DDOT>0</MEAN_MOTION_DDOT></tleParameters></data></segment></body></omm>
<omm id="CCSDS_OMM_VERS" version="2.0">
<header><CREATION_DATE/><ORIGINATOR/></header><body><segment><metadata><OBJECT_NAME>KUIPER-00065</OBJECT_NAME><OBJECT_ID>2025-134AB</OBJECT_ID><CENTER_NAME>EARTH</CENTER_NAME><REF_FRAME>TEME</REF_FRAME><TIME_SYSTEM>UTC</TIME_SYSTEM><MEAN_ELEMENT_THEORY>SGP4</MEAN_ELEMENT_THEORY></metadata><data><meanElements><EPOCH>2025-11-13T16:46:19.986816</EPOCH><MEAN_MOTION>14.77943759</MEAN_MOTION><ECCENTRICITY>.0011209</ECCENTRICITY><INCLINATION>51.9026</INCLINATION><RA_OF_ASC_NODE>33.1267</RA_OF_ASC_NODE><ARG_OF_PERICENTER>261.5009</ARG_OF_PERICENTER><MEAN_ANOMALY>98.4682</MEAN_ANOMALY></meanElements><tleParameters><EPHEMERIS_TYPE>0</EPHEMERIS_TYPE><CLASSIFICATION_TYPE>U</CLASSIFICATION_TYPE><NORAD_CAT_ID>64525</NORAD_CAT_ID><ELEMENT_SET_NO>999</ELEMENT_SET_NO><REV_AT_EPOCH>2278</REV_AT_EPOCH><BSTAR>-.75131E-1</BSTAR><MEAN_MOTION_DOT>-.518121E-2</MEAN_MOTION_DOT><MEAN_MOTION_DDOT>0</MEAN_MOTION_DDOT></tleParameters></data></segment></body></omm>
<omm id="CCSDS_OMM_VERS" version="2.0">
<header><CREATION_DATE/><ORIGINATOR/></header><body><segment><metadata><OBJECT_NAME>KUIPER-00066</OBJECT_NAME><OBJECT_ID>2025-134AC</OBJECT_ID><CENTER_NAME>EARTH</CENTER_NAME><REF_FRAME>TEME</REF_FRAME><TIME_SYSTEM>UTC</TIME_SYSTEM><MEAN_ELEMENT_THEORY>SGP4</MEAN_ELEMENT_THEORY></metadata><data><meanElements><EPOCH>2025-11-13T10:46:27.839712</EPOCH><MEAN_MOTION>15.19508639</MEAN_MOTION><ECCENTRICITY>.0002202</ECCENTRICITY><INCLINATION>51.8917</INCLINATION><RA_OF_ASC_NODE>12.5830</RA_OF_ASC_NODE><ARG_OF_PERICENTER>316.0585</ARG_OF_PERICENTER><MEAN_ANOMALY>44.0219</MEAN_ANOMALY></meanElements><tleParameters><EPHEMERIS_TYPE>0</EPHEMERIS_TYPE><CLASSIFICATION_TYPE>U</CLASSIFICATION_TYPE><NORAD_CAT_ID>64526</NORAD_CAT_ID><ELEMENT_SET_NO>999</ELEMENT_SET_NO><REV_AT_EPOCH>2306</REV_AT_EPOCH><BSTAR>.16977E-2</BSTAR><MEAN_MOTION_DOT>.3639E-3</MEAN_MOTION_DOT><MEAN_MOTION_DDOT>0</MEAN_MOTION_DDOT></tleParameters></data></segment></body></omm>
<omm id="CCSDS_OMM_VERS" version="2.0">
<header><CREATION_DATE/><ORIGINATOR/></header><body><segment><metadata><OBJECT_NAME>KUIPER-00069</OBJECT_NAME><OBJECT_ID>2025-151A</OBJECT_ID><CENTER_NAME>EARTH</CENTER_NAME><REF_FRAME>TEME</REF_FRAME><TIME_SYSTEM>UTC</TIME_SYSTEM><MEAN_ELEMENT_THEORY>SGP4</MEAN_ELEMENT_THEORY></metadata><data><meanElements><EPOCH>2025-11-13T20:00:01.999008</EPOCH><MEAN_MOTION>14.86223405</MEAN_MOTION><ECCENTRICITY>.0006937</ECCENTRICITY><INCLINATION>51.8998</INCLINATION><RA_OF_ASC_NODE>72.9432</RA_OF_ASC_NODE><ARG_OF_PERICENTER>254.8998</ARG_OF_PERICENTER><MEAN_ANOMALY>114.4385</MEAN_ANOMALY></meanElements><tleParameters><EPHEMERIS_TYPE>0</EPHEMERIS_TYPE><CLASSIFICATION_TYPE>U</CLASSIFICATION_TYPE><NORAD_CAT_ID>64816</NORAD_CAT_ID><ELEMENT_SET_NO>999</ELEMENT_SET_NO><REV_AT_EPOCH>391</REV_AT_EPOCH><BSTAR>-.10449E+0</BSTAR><MEAN_MOTION_DOT>-.869145E-2</MEAN_MOTION_DOT><MEAN_MOTION_DDOT>0</MEAN_MOTION_DDOT></tleParameters></data></segment></body></omm>
<omm id="CCSDS_OMM_VERS" version="2.0">
<header><CREATION_DATE/><ORIGINATOR/></header><body><segment><metadata><OBJECT_NAME>KUIPER-00070</OBJECT_NAME><OBJECT_ID>2025-151B</OBJECT_ID><CENTER_NAME>EARTH</CENTER_NAME><REF_FRAME>TEME</REF_FRAME><TIME_SYSTEM>UTC</TIME_SYSTEM><MEAN_ELEMENT_THEORY>SGP4</MEAN_ELEMENT_THEORY></metadata><data><meanElements><EPOCH>2025-11-13T18:31:44.315616</EPOCH><MEAN_MOTION>14.80002023</MEAN_MOTION><ECCENTRICITY>.0010027</ECCENTRICITY><INCLINATION>51.8999</INCLINATION><RA_OF_ASC_NODE>98.1514</RA_OF_ASC_NODE><ARG_OF_PERICENTER>225.0251</ARG_OF_PERICENTER><MEAN_ANOMALY>134.9899</MEAN_ANOMALY></meanElements><tleParameters><EPHEMERIS_TYPE>0</EPHEMERIS_TYPE><CLASSIFICATION_TYPE>U</CLASSIFICATION_TYPE><NORAD_CAT_ID>64817</NORAD_CAT_ID><ELEMENT_SET_NO>999</ELEMENT_SET_NO><REV_AT_EPOCH>1925</REV_AT_EPOCH><BSTAR>.76658E-3</BSTAR><MEAN_MOTION_DOT>.564E-4</MEAN_MOTION_DOT><MEAN_MOTION_DDOT>0</MEAN_MOTION_DDOT></tleParameters></data></segment></body></omm>

</ndm>
