KUIPER-00061            
1 64521U 25134X   25317.55208738  .00010063  00000+0  13442-2 0  9994
2 64521  51.9025  21.6428 0005051 252.1265 107.9146 14.80018353 22936
KUIPER-00062            
1 64522U 25134Y   25317.60999510  .00013778  00000+0  16272-2 0  9996
2 64522  51.8988  27.3929 0006793 274.8485  85.1704 14.84890758 22873
KUIPER-00063            
1 64523U 25134Z   25317.46734054  .00009744  00000+0  13019-2 0  9995
2 64523  51.9039  31.9476 0003363 208.1683 151.9098 14.80041125 22791
KUIPER-00064            
1 64524U 25134AA  25317.39451007  .00014352  00000+0  19194-2 0  9993
2 64524  51.9043  29.6012 0006184 331.3447  28.7175 14.79664687 22821
KUIPER-00065            
1 64525U 25134AB  25317.69884244 -.00518121  00000+0 -75131-1 0  9997
2 64525  51.9026  33.1267 0011209 261.5009  98.4682 14.77943759 22787
KUIPER-00066            
1 64526U 25134AC  25317.44893333  .00036390  00000+0  16977-2 0  9995
2 64526  51.8917  12.5830 0002202 316.0585  44.0219 15.19508639 23067
KUIPER-00069            
1 64816U 25151A   25317.83335647 -.00869145  00000+0 -10449+0 0  9997
2 64816  51.8998  72.9432 0006937 254.8998 114.4385 14.86223405  3918
KUIPER-00070            
1 64817U 25151B   25317.77204069  .00005640  00000+0  76658-3 0  9992
2 64817  51.8999  98.1514 0010027 225.0251 134.9899 14.80002023 19254
